start=new Date('2022-01-26T00:00:00.000Z').valueOf();
sats=[{"OBJECT_ID":"2020-070BJ","MEAN_ANOMALY":"289.3841","MEAN_MOTION_DDOT":"0.0000000000000","TIME_SYSTEM":"UTC","ARG_OF_PERICENTER":"70.7294","SITE":"AFETR","TLE_LINE2":"2 46588  53.0555  67.6350 0001347  70.7294 289.3841 15.06402952 73129","PERIOD":"95.592","ELEMENT_SET_NO":"999","PERIAPSIS":"546.272","GP_ID":"194643511","RCS_SIZE":"LARGE","MEAN_MOTION":"15.06402952","FILE":"3283711","RA_OF_ASC_NODE":"67.6350","DECAY_DATE":null,"COUNTRY_CODE":"US","BSTAR":"0.00023839000000","INCLINATION":"53.0555","EPHEMERIS_TYPE":"0","CLASSIFICATION_TYPE":"U","SEMIMAJOR_AXIS":"6925.340","OBJECT_NAME":"STARLINK-1746","NORAD_CAT_ID":"46588","ECCENTRICITY":"0.00013470","APOAPSIS":"548.137","CENTER_NAME":"EARTH","LAUNCH_DATE":"2020-10-06","OBJECT_TYPE":"PAYLOAD","MEAN_MOTION_DOT":"0.00003271","EPOCH":"2022-01-25T20:16:03.095328","REV_AT_EPOCH":"7312","TLE_LINE1":"1 46588U 20070BJ  22025.84448027  .00003271  00000-0  23839-3 0  9999","MEAN_ELEMENT_THEORY":"SGP4","REF_FRAME":"TEME"},{"CENTER_NAME":"EARTH","LAUNCH_DATE":"2020-10-06","OBJECT_TYPE":"PAYLOAD","REV_AT_EPOCH":"7311","MEAN_MOTION_DOT":"-0.00000452","EPOCH":"2022-01-25T20:05:25.630080","REF_FRAME":"TEME","MEAN_ELEMENT_THEORY":"SGP4","TLE_LINE1":"1 46589U 20070BK  22025.83710220 -.00000452  00000-0 -11418-4 0  9997","RA_OF_ASC_NODE":"67.6743","DECAY_DATE":null,"COUNTRY_CODE":"US","SEMIMAJOR_AXIS":"6925.332","BSTAR":"-0.00001141800000","EPHEMERIS_TYPE":"0","INCLINATION":"53.0558","CLASSIFICATION_TYPE":"U","OBJECT_NAME":"STARLINK-1749","APOAPSIS":"548.334","ECCENTRICITY":"0.00016420","NORAD_CAT_ID":"46589","PERIAPSIS":"546.060","ELEMENT_SET_NO":"999","GP_ID":"194644261","RCS_SIZE":"LARGE","MEAN_MOTION":"15.06405510","FILE":"3283711","OBJECT_ID":"2020-070BK","MEAN_ANOMALY":"300.4443","MEAN_MOTION_DDOT":"0.0000000000000","TIME_SYSTEM":"UTC","ARG_OF_PERICENTER":"59.6708","SITE":"AFETR","TLE_LINE2":"2 46589  53.0558  67.6743 0001642  59.6708 300.4443 15.06405510 73118","PERIOD":"95.592"},{"DECAY_DATE":null,"RA_OF_ASC_NODE":"329.3055","COUNTRY_CODE":"US","OBJECT_NAME":"STARLINK-1754","SEMIMAJOR_AXIS":"6790.912","BSTAR":"0.00195350000000","EPHEMERIS_TYPE":"0","CLASSIFICATION_TYPE":"U","INCLINATION":"53.0574","APOAPSIS":"413.531","ECCENTRICITY":"0.00011100","NORAD_CAT_ID":"46590","CENTER_NAME":"EARTH","LAUNCH_DATE":"2020-10-06","REF_FRAME":"TEME","MEAN_ELEMENT_THEORY":"SGP4","TLE_LINE1":"1 46590U 20070BL  22025.54001918  .00118137  00000-0  19535-2 0  9998","MEAN_MOTION_DOT":"0.00118137","OBJECT_TYPE":"PAYLOAD","EPOCH":"2022-01-25T12:57:37.657152","REV_AT_EPOCH":"7445","OBJECT_ID":"2020-070BL","MEAN_MOTION_DDOT":"0.0000000000000","MEAN_ANOMALY":"256.2039","SITE":"AFETR","ARG_OF_PERICENTER":"103.9093","TIME_SYSTEM":"UTC","PERIOD":"92.822","TLE_LINE2":"2 46590  53.0574 329.3055 0001110 103.9093 256.2039 15.51352928 74453","GP_ID":"194618118","PERIAPSIS":"412.023","ELEMENT_SET_NO":"999","MEAN_MOTION":"15.51352928","RCS_SIZE":"LARGE","FILE":"3283574"},{"LAUNCH_DATE":"2020-10-06","REV_AT_EPOCH":"7218","OBJECT_TYPE":"PAYLOAD","MEAN_MOTION_DOT":"-0.00000628","EPOCH":"2022-01-25T21:25:03.423936","REF_FRAME":"TEME","TLE_LINE1":"1 46591U 20070BM  22025.89240074 -.00000628  00000-0 -23260-4 0  9994","MEAN_ELEMENT_THEORY":"SGP4","CENTER_NAME":"EARTH","SEMIMAJOR_AXIS":"6925.373","CLASSIFICATION_TYPE":"U","BSTAR":"-0.00002326000000","INCLINATION":"53.0543","EPHEMERIS_TYPE":"0","OBJECT_NAME":"STARLINK-1755","ECCENTRICITY":"0.00013610","APOAPSIS":"548.181","NORAD_CAT_ID":"46591","RA_OF_ASC_NODE":"67.4339","DECAY_DATE":null,"COUNTRY_CODE":"US","RCS_SIZE":"LARGE","MEAN_MOTION":"15.06392026","FILE":"3283711","PERIAPSIS":"546.295","ELEMENT_SET_NO":"999","GP_ID":"194642760","TIME_SYSTEM":"UTC","ARG_OF_PERICENTER":"82.2199","SITE":"AFETR","TLE_LINE2":"2 46591  53.0543  67.4339 0001361  82.2199 277.8944 15.06392026 72184","PERIOD":"95.593","OBJECT_ID":"2020-070BM","MEAN_ANOMALY":"277.8944","MEAN_MOTION_DDOT":"0.0000000000000"},{"TLE_LINE2":"2 46671  53.0544 158.5950 0002067  80.1041 280.0181 15.06395977 70367","PERIOD":"95.592","ARG_OF_PERICENTER":"80.1041","TIME_SYSTEM":"UTC","SITE":"AFETR","MEAN_ANOMALY":"280.0181","MEAN_MOTION_DDOT":"0.0000000000000","OBJECT_ID":"2020-073B","FILE":"3283711","RCS_SIZE":"LARGE","MEAN_MOTION":"15.06395977","PERIAPSIS":"545.794","ELEMENT_SET_NO":"999","GP_ID":"194642518","APOAPSIS":"548.657","ECCENTRICITY":"0.00020670","NORAD_CAT_ID":"46671","SEMIMAJOR_AXIS":"6925.361","BSTAR":"0.00001527300000","EPHEMERIS_TYPE":"0","INCLINATION":"53.0544","CLASSIFICATION_TYPE":"U","OBJECT_NAME":"STARLINK-1715","COUNTRY_CODE":"US","RA_OF_ASC_NODE":"158.5950","DECAY_DATE":null,"EPOCH":"2022-01-25T15:10:49.125792","OBJECT_TYPE":"PAYLOAD","MEAN_MOTION_DOT":"-0.00000054","REV_AT_EPOCH":"7036","REF_FRAME":"TEME","TLE_LINE1":"1 46671U 20073B   22025.63251303 -.00000054  00000-0  15273-4 0  9992","MEAN_ELEMENT_THEORY":"SGP4","LAUNCH_DATE":"2020-10-18","CENTER_NAME":"EARTH"},{"APOAPSIS":"548.288","ECCENTRICITY":"0.00015160","NORAD_CAT_ID":"46672","OBJECT_NAME":"STARLINK-1716","SEMIMAJOR_AXIS":"6925.373","BSTAR":"-0.00009160200000","INCLINATION":"53.0539","EPHEMERIS_TYPE":"0","CLASSIFICATION_TYPE":"U","COUNTRY_CODE":"US","DECAY_DATE":null,"RA_OF_ASC_NODE":"153.4045","REF_FRAME":"TEME","TLE_LINE1":"1 46672U 20073C   22025.67262599 -.00001645  00000-0 -91602-4 0  9994","MEAN_ELEMENT_THEORY":"SGP4","MEAN_MOTION_DOT":"-0.00001645","OBJECT_TYPE":"PAYLOAD","REV_AT_EPOCH":"7044","EPOCH":"2022-01-25T16:08:34.885536","LAUNCH_DATE":"2020-10-18","CENTER_NAME":"EARTH","PERIOD":"95.593","TLE_LINE2":"2 46672  53.0539 153.4045 0001516  83.8382 276.2780 15.06391930 70443","SITE":"AFETR","TIME_SYSTEM":"UTC","ARG_OF_PERICENTER":"83.8382","MEAN_MOTION_DDOT":"0.0000000000000","MEAN_ANOMALY":"276.2780","OBJECT_ID":"2020-073C","FILE":"3283711","MEAN_MOTION":"15.06391930","RCS_SIZE":"LARGE","GP_ID":"194642768","PERIAPSIS":"546.188","ELEMENT_SET_NO":"999"},{"OBJECT_NAME":"STARLINK-1717","BSTAR":"0.00001468100000","INCLINATION":"53.0543","CLASSIFICATION_TYPE":"U","EPHEMERIS_TYPE":"0","SEMIMAJOR_AXIS":"6925.364","NORAD_CAT_ID":"46673","ECCENTRICITY":"0.00018840","APOAPSIS":"548.534","DECAY_DATE":null,"RA_OF_ASC_NODE":"168.2578","COUNTRY_CODE":"US","LAUNCH_DATE":"2020-10-18","TLE_LINE1":"1 46673U 20073D   22025.70899973 -.00000063  00000-0  14681-4 0  9995","MEAN_ELEMENT_THEORY":"SGP4","REF_FRAME":"TEME","EPOCH":"2022-01-25T17:00:57.576672","OBJECT_TYPE":"PAYLOAD","MEAN_MOTION_DOT":"-0.00000063","REV_AT_EPOCH":"7023","CENTER_NAME":"EARTH","SITE":"AFETR","TIME_SYSTEM":"UTC","ARG_OF_PERICENTER":"83.7752","PERIOD":"95.592","TLE_LINE2":"2 46673  53.0543 168.2578 0001884  83.7752 276.3452 15.06394929 70237","OBJECT_ID":"2020-073D","MEAN_MOTION_DDOT":"0.0000000000000","MEAN_ANOMALY":"276.3452","MEAN_MOTION":"15.06394929","RCS_SIZE":"LARGE","FILE":"3283711","GP_ID":"194644019","ELEMENT_SET_NO":"999","PERIAPSIS":"545.924"},{"OBJECT_NAME":"STARLINK-1718","BSTAR":"0.00010570000000","CLASSIFICATION_TYPE":"U","EPHEMERIS_TYPE":"0","INCLINATION":"53.0546","SEMIMAJOR_AXIS":"6925.338","NORAD_CAT_ID":"46674","APOAPSIS":"548.420","ECCENTRICITY":"0.00017570","DECAY_DATE":null,"RA_OF_ASC_NODE":"153.6002","COUNTRY_CODE":"US","LAUNCH_DATE":"2020-10-18","TLE_LINE1":"1 46674U 20073E   22025.63206733  .00001293  00000-0  10570-3 0  9991","MEAN_ELEMENT_THEORY":"SGP4","REF_FRAME":"TEME","OBJECT_TYPE":"PAYLOAD","EPOCH":"2022-01-25T15:10:10.617312","MEAN_MOTION_DOT":"0.00001293","REV_AT_EPOCH":"7043","CENTER_NAME":"EARTH","SITE":"AFETR","ARG_OF_PERICENTER":"83.8877","TIME_SYSTEM":"UTC","PERIOD":"95.592","TLE_LINE2":"2 46674  53.0546 153.6002 0001757  83.8877 276.2312 15.06403317 70437","OBJECT_ID":"2020-073E","MEAN_MOTION_DDOT":"0.0000000000000","MEAN_ANOMALY":"276.2312","MEAN_MOTION":"15.06403317","RCS_SIZE":"LARGE","FILE":"3283711","GP_ID":"194643770","ELEMENT_SET_NO":"999","PERIAPSIS":"545.987"},{"COUNTRY_CODE":"US","RA_OF_ASC_NODE":"153.6212","DECAY_DATE":null,"APOAPSIS":"548.557","ECCENTRICITY":"0.00019060","NORAD_CAT_ID":"46675","SEMIMAJOR_AXIS":"6925.372","EPHEMERIS_TYPE":"0","BSTAR":"-0.00007456100000","INCLINATION":"53.0553","CLASSIFICATION_TYPE":"U","OBJECT_NAME":"STARLINK-1720","CENTER_NAME":"EARTH","OBJECT_TYPE":"PAYLOAD","MEAN_MOTION_DOT":"-0.00001392","REV_AT_EPOCH":"7043","EPOCH":"2022-01-25T15:04:53.260608","REF_FRAME":"TEME","TLE_LINE1":"1 46675U 20073F   22025.62839422 -.00001392  00000-0 -74561-4 0  9991","MEAN_ELEMENT_THEORY":"SGP4","LAUNCH_DATE":"2020-10-18","MEAN_ANOMALY":"274.0026","MEAN_MOTION_DDOT":"0.0000000000000","OBJECT_ID":"2020-073F","TLE_LINE2":"2 46675  53.0553 153.6212 0001906  86.1181 274.0026 15.06392260 70431","PERIOD":"95.593","TIME_SYSTEM":"UTC","ARG_OF_PERICENTER":"86.1181","SITE":"AFETR","PERIAPSIS":"545.917","ELEMENT_SET_NO":"999","GP_ID":"194643018","FILE":"3283711","RCS_SIZE":"LARGE","MEAN_MOTION":"15.06392260"},{"OBJECT_NAME":"STARLINK-1766","SEMIMAJOR_AXIS":"6925.331","CLASSIFICATION_TYPE":"U","BSTAR":"0.00004548700000","INCLINATION":"53.0538","EPHEMERIS_TYPE":"0","ECCENTRICITY":"0.00016260","APOAPSIS":"548.322","NORAD_CAT_ID":"46677","DECAY_DATE":null,"RA_OF_ASC_NODE":"153.0358","COUNTRY_CODE":"US","LAUNCH_DATE":"2020-10-18","REF_FRAME":"TEME","MEAN_ELEMENT_THEORY":"SGP4","TLE_LINE1":"1 46677U 20073H   22025.75739297  .00000396  00000-0  45487-4 0  9992","OBJECT_TYPE":"PAYLOAD","MEAN_MOTION_DOT":"0.00000396","EPOCH":"2022-01-25T18:10:38.752608","REV_AT_EPOCH":"7045","CENTER_NAME":"EARTH","SITE":"AFETR","ARG_OF_PERICENTER":"75.3284","TIME_SYSTEM":"UTC","PERIOD":"95.592","TLE_LINE2":"2 46677  53.0538 153.0358 0001626  75.3284 284.7885 15.06405843 70459","OBJECT_ID":"2020-073H","MEAN_MOTION_DDOT":"0.0000000000000","MEAN_ANOMALY":"284.7885","MEAN_MOTION":"15.06405843","RCS_SIZE":"LARGE","FILE":"3283711","GP_ID":"194643268","PERIAPSIS":"546.070","ELEMENT_SET_NO":"999"}];
